{
  "type": "FeatureCollection",
  "features": [
    {
      "type": "Feature",
      "id": "Fallecidos.1",
      "geometry": {
        "type": "Point",
        "coordinates": [-67.5216, -46.4393] 
      },
      "geometry_name": "the_geom",
      "properties": {
        "Nro": 1,
        "Escalafon": "OFICIAL",
        "Grado": "GENERAL DE BRIGADA",
        "Grado_PM": "POST MORTEM",
        "Nombre": "ARÉVALO, Clodoveo Miguel Ángel",
        "Unidad": "Liceo Militar Gral. Roca",
        "L_Deceso": "Caleta Olivia, Santa Cruz",
        "F_Deces": "1982-04-30T00:00:00Z",
        "Causa": "Accidente aéreo (UH-1H)"
      }
    },
    {
      "type": "Feature",
      "id": "Fallecidos.2",
      "geometry": {
        "type": "Point",
        "coordinates": [-67.5216, -46.4393]
      },
      "geometry_name": "the_geom",
      "properties": {
        "Nro": 2,
        "Escalafon": "OFICIAL",
        "Grado": "CAPITÁN",
        "Grado_PM": "POST MORTEM",
        "Nombre": "SOSA, Roberto Remi",
        "Unidad": "Ejército Argentino",
        "L_Deceso": "Caleta Olivia, Santa Cruz",
        "F_Deces": "1982-04-30T00:00:00Z",
        "Causa": "Accidente aéreo (UH-1H)"
      }
    },
    {
      "type": "Feature",
      "id": "Fallecidos.3",
      "geometry": {
        "type": "Point",
        "coordinates": [-67.5216, -46.4393]
      },
      "geometry_name": "the_geom",
      "properties": {
        "Nro": 3,
        "Escalafon": "OFICIAL",
        "Grado": "TENIENTE",
        "Grado_PM": "POST MORTEM",
        "Nombre": "FASSIO, Marcos Antonio",
        "Unidad": "Batallón de Aviación de Combate 601",
        "L_Deceso": "Caleta Olivia, Santa Cruz",
        "F_Deces": "1982-04-30T00:00:00Z",
        "Causa": "Accidente aéreo"
      }
    },
    {
      "type": "Feature",
      "id": "Fallecidos.4",
      "geometry": {
        "type": "Point",
        "coordinates": [-67.5216, -46.4393]
      },
      "geometry_name": "the_geom",
      "properties": {
        "Nro": 4,
        "Escalafon": "SUBOFICIAL",
        "Grado": "SARGENTO",
        "Grado_PM": "POST MORTEM",
        "Nombre": "CAMPOS, Pedro Andrés",
        "Unidad": "Batallón de Aviación de Combate 601",
        "L_Deceso": "Caleta Olivia, Santa Cruz",
        "F_Deces": "1982-04-30T00:00:00Z",
        "Causa": "Accidente aéreo"
      }
    },
    {
      "type": "Feature",
      "id": "Fallecidos.5",
      "geometry": {
        "type": "Point",
        "coordinates": [-67.5216, -46.4393]
      },
      "geometry_name": "the_geom",
      "properties": {
        "Nro": 5,
        "Escalafon": "SUBOFICIAL",
        "Grado": "CABO 1º",
        "Grado_PM": "POST MORTEM",
        "Nombre": "BARROS, Néstor Daniel",
        "Unidad": "Batallón de Aviación de Combate 601",
        "L_Deceso": "Entre Caleta Olivia y Puerto Deseado",
        "F_Deces": "1982-04-30T00:00:00Z",
        "Causa": "Accidente aéreo"
      }
    },
    {
      "type": "Feature",
      "id": "Fallecidos.6",
      "geometry": {
        "type": "Point",
        "coordinates": [-67.5216, -46.4393]
      },
      "geometry_name": "the_geom",
      "properties": {
        "Nro": 6,
        "Escalafon": "SUBOFICIAL",
        "Grado": "CABO",
        "Grado_PM": "POST MORTEM",
        "Nombre": "CINI, Marcelo Gustavo",
        "Unidad": "Ejército Argentino",
        "L_Deceso": "Caleta Olivia, Santa Cruz",
        "F_Deces": "1982-04-30T00:00:00Z",
        "Causa": "Accidente aéreo"
      }
    },
    {
      "type": "Feature",
      "id": "Fallecidos.7",
      "geometry": {
        "type": "Point",
        "coordinates": [-67.5216, -46.4393]
      },
      "geometry_name": "the_geom",
      "properties": {
        "Nro": 7,
        "Escalafon": "SUBOFICIAL",
        "Grado": "CABO",
        "Grado_PM": "POST MORTEM",
        "Nombre": "SEYRA, Fernando Luis",
        "Unidad": "Ejército Argentino",
        "L_Deceso": "Caleta Olivia, Santa Cruz",
        "F_Deces": "1982-04-30T00:00:00Z",
        "Causa": "Accidente aéreo"
      }
    },
    {
      "type": "Feature",
      "id": "Fallecidos.8",
      "geometry": {
        "type": "Point",
        "coordinates": [-67.5216, -46.4393]
      },
      "geometry_name": "the_geom",
      "properties": {
        "Nro": 8,
        "Escalafon": "SUBOFICIAL",
        "Grado": "CABO",
        "Grado_PM": "POST MORTEM",
        "Nombre": "MILLAPI, Oscar Calixto",
        "Unidad": "Ejército Argentino",
        "L_Deceso": "Caleta Olivia, Santa Cruz",
        "F_Deces": "1982-04-30T00:00:00Z",
        "Causa": "Accidente aéreo"
      }
    },
    {
      "type": "Feature",
      "id": "Fallecidos.9",
      "geometry": {
        "type": "Point",
        "coordinates": [-67.5216, -46.4393]
      },
      "geometry_name": "the_geom",
      "properties": {
        "Nro": 9,
        "Escalafon": "SUBOFICIAL",
        "Grado": "CABO",
        "Grado_PM": "POST MORTEM",
        "Nombre": "PALAVECINO, Daniel Alberto",
        "Unidad": "Ejército Argentino",
        "L_Deceso": "Caleta Olivia, Santa Cruz",
        "F_Deces": "1982-04-30T00:00:00Z",
        "Causa": "Accidente aéreo"
      }
    },
    {
      "type": "Feature",
      "id": "Fallecidos.10",
      "geometry": {
        "type": "Point",
        "coordinates": [-67.4816, -45.8647]
      },
      "geometry_name": "the_geom",
      "properties": {
        "Nro": 10,
        "Escalafon": "SUBOFICIAL",
        "Grado": "CABO",
        "Grado_PM": "POST MORTEM",
        "Nombre": "MARCIAL, Jesús Artemio",
        "Unidad": "Ejército Argentino",
        "L_Deceso": "Comodoro Rivadavia",
        "F_Deces": "1982-05-23T00:00:00Z",
        "Causa": "Accidente relacionado al conflicto"
      }
    },
    {
      "type": "Feature",
      "id": "Fallecidos.11",
      "geometry": {
        "type": "Point",
        "coordinates": [-67.5216, -46.4393]
      },
      "geometry_name": "the_geom",
      "properties": {
        "Nro": 11,
        "Escalafon": "OFICIAL",
        "Grado": "TENIENTE",
        "Grado_PM": "POST MORTEM",
        "Nombre": "ABRAHAN, Juan Omar",
        "Unidad": "Ejército Argentino",
        "L_Deceso": "Playa cercana a Caleta Olivia",
        "F_Deces": "1982-05-25T00:00:00Z",
        "Causa": "Ahogamiento"
      }
    },
    {
      "type": "Feature",
      "id": "Fallecidos.12",
      "geometry": {
        "type": "Point",
        "coordinates": [-65.3419, -26.9327]
      },
      "geometry_name": "the_geom",
      "properties": {
        "Nro": 12,
        "Escalafon": "OFICIAL",
        "Grado": "TENIENTE 1º",
        "Grado_PM": "POST MORTEM",
        "Nombre": "AUVIEUX, Julio César",
        "Unidad": "B Log Const 601",
        "L_Deceso": "Lules, Tucumán",
        "F_Deces": "1982-07-08T00:00:00Z",
        "Causa": "Accidente"
      }
    },
    {
      "type": "Feature",
      "id": "Fallecidos.13",
      "geometry": {
        "type": "Point",
        "coordinates": [-59.8019, -35.4395]
      },
      "geometry_name": "the_geom",
      "properties": {
        "Nro": 13,
        "Escalafon": "SUBOFICIAL",
        "Grado": "CABO",
        "Grado_PM": "POST MORTEM",
        "Nombre": "GÓMEZ, Sergio Oscar",
        "Unidad": "Ejército Argentino",
        "L_Deceso": "San Miguel del Monte, Buenos Aires",
        "F_Deces": "1982-04-22T00:00:00Z",
        "Causa": "Accidente"
      }
    },
    {
      "type": "Feature",
      "id": "Fallecidos.14",
      "geometry": {
        "type": "Point",
        "coordinates": [-65.2226, -26.8083]
      },
      "geometry_name": "the_geom",
      "properties": {
        "Nro": 14,
        "Escalafon": "SUBOFICIAL",
        "Grado": "SUBOFICIAL PRINCIPAL",
        "Grado_PM": "POST MORTEM",
        "Nombre": "SANAGUA, Alberto Antonio",
        "Unidad": "Ejército Argentino",
        "L_Deceso": "Provincia de Tucumán",
        "F_Deces": "1982-05-28T00:00:00Z",
        "Causa": "Enfermedad"
      }
    },
    {
      "type": "Feature",
      "id": "Fallecidos.15",
      "geometry": {
        "type": "Point",
        "coordinates": [-58.5796, -34.4261]
      },
      "geometry_name": "the_geom",
      "properties": {
        "Nro": 15,
        "Escalafon": "SUBOFICIAL",
        "Grado": "CABO",
        "Grado_PM": "POST MORTEM",
        "Nombre": "CANTEROS, Aldo Rubén",
        "Unidad": "Ejército Argentino",
        "L_Deceso": "Tigre, Buenos Aires",
        "F_Deces": "1982-06-15T00:00:00Z",
        "Causa": "Enfermedad"
      }
    }
  ]
}
